     3.00           N                   E                   RINEX VERSION / TYPE
BRD_USR             ESA                 20190106 121917  UTCPGM / RUN BY / DATE
 GAL   4.9750E+01  3.9062E-03 -3.2654E-03  0.0000E+00       IONOSPHERIC CORR
GAUT  0.0000000000E+00 0.000000000E+00      0 2035 GSTB   0 TIME SYSTEM CORR
GPGA -2.6484485716E-09 2.664535259E-15      0 2035 GSTB   0 TIME SYSTEM CORR
                                                            END OF HEADER
E24 2019 01 06 10 40 00 6.300201872364E-03-1.969624463527E-11 0.000000000000E+00
     6.400000000000E+01 1.748750000000E+02 2.190091226090E-09-1.681611151226E-01
     8.109956979752E-06 4.654787480831E-04 1.168437302113E-05 5.440628690720E+03
     3.840000000000E+04 2.793967723846E-08-2.942976900492E+00 2.421438694000E-08
     9.879182195593E-01 1.025312500000E+02 4.442220762954E-01-5.040209944975E-09
    -9.964700784071E-11 2.580000000000E+02 2.035000000000E+03 0.000000000000E+00
     3.120000000000E+00 0.000000000000E+00 4.260800778866E-08 0.000000000000E+00
     3.910000000000E+04 0.000000000000E+00 0.000000000000E+00 0.000000000000E+00
E25 2019 01 06 10 30 00 1.932040904649E-03-1.138289462688E-11 0.000000000000E+00
     6.300000000000E+01 1.665625000000E+02 2.255808249182E-09 8.211943292857E-01
     7.698312401772E-06 2.176887355745E-04 1.249276101589E-05 5.440633728027E+03
     3.780000000000E+04 1.266598701477E-07-2.949060301959E+00-1.024454832077E-07
     9.899207203429E-01 8.334375000000E+01-1.382317972783E+00-4.970207029073E-09
    -1.307197307158E-10 2.580000000000E+02 2.035000000000E+03 0.000000000000E+00
     3.120000000000E+00 0.000000000000E+00-1.396983861923E-09 0.000000000000E+00
     3.910000000000E+04 0.000000000000E+00 0.000000000000E+00 0.000000000000E+00
E27 2019 01 06 10 40 00 5.552754155360E-04-7.574385563203E-12 0.000000000000E+00
     6.400000000000E+01 1.309375000000E+02 2.270094558550E-09-1.923304791765E+00
     6.174668669701E-06 2.081173006445E-04 1.214444637299E-05 5.440632431030E+03
     3.840000000000E+04 3.725290298462E-08-2.949038191415E+00 6.146728992462E-08
     9.898877593356E-01 9.437500000000E+01-9.197464155414E-01-5.055924885280E-09
    -9.071806448581E-11 2.580000000000E+02 2.035000000000E+03 0.000000000000E+00
     3.120000000000E+00 0.000000000000E+00-2.793967723846E-09 0.000000000000E+00
     3.910000000000E+04 0.000000000000E+00 0.000000000000E+00 0.000000000000E+00
E30 2019 01 06 10 40 00 5.210520466790E-03-3.056754849240E-11 0.000000000000E+00
     6.400000000000E+01 1.405937500000E+02 2.227235630447E-09-2.574472949223E+00
     6.606802344322E-06 2.947403118014E-04 1.247040927410E-05 5.440625246048E+03
     3.840000000000E+04-9.313225746155E-08-2.943032040800E+00 3.539025783539E-08
     9.879031280963E-01 8.553125000000E+01 4.968194437812E-01-5.012351641708E-09
    -1.442917246152E-10 2.580000000000E+02 2.035000000000E+03 0.000000000000E+00
     3.120000000000E+00 0.000000000000E+00-2.793967723846E-09 0.000000000000E+00
     3.910000000000E+04 0.000000000000E+00 0.000000000000E+00 0.000000000000E+00
E08 2019 01 06 10 40 00 6.428822525777E-03-7.474909580196E-12 0.000000000000E+00
     6.400000000000E+01 2.806250000000E+01 3.546219142833E-09-4.805653881745E-01
     1.270323991776E-06 2.276476006955E-04 5.489215254784E-06 5.440606742859E+03
     3.840000000000E+04-5.587935447693E-09 1.235727498428E+00-2.980232238770E-08
     9.581881254101E-01 2.188750000000E+02 4.953658049913E-01-5.615591054765E-09
     4.096599211229E-10 5.210000000000E+02 2.035000000000E+03 0.000000000000E+00
     3.120000000000E+00 0.000000000000E+00-8.381903171539E-09-9.778887033463E-09
     3.911500000000E+04 0.000000000000E+00 0.000000000000E+00 0.000000000000E+00
E04 2019 01 06 10 40 00-1.943672541529E-04-7.844391802792E-12 0.000000000000E+00
     6.400000000000E+01 2.878125000000E+01 3.710868858297E-09 1.190263342903E+00
     1.223757863045E-06 8.306768722832E-05 4.924833774567E-06 5.440603948593E+03
     3.840000000000E+04-4.284083843231E-08 1.244419263812E+00-3.725290298462E-09
     9.522446403543E-01 2.280000000000E+02 1.968992223698E+00-5.743810681341E-09
     3.507288949806E-10 2.580000000000E+02 2.035000000000E+03 0.000000000000E+00
     3.120000000000E+00 0.000000000000E+00-7.916241884232E-09 0.000000000000E+00
     3.915000000000E+04 0.000000000000E+00 0.000000000000E+00 0.000000000000E+00
E15 2019 01 06 10 40 00 9.237100603059E-04-1.051603248925E-12 0.000000000000E+00
     6.400000000000E+01-1.657187500000E+02 2.890477542849E-09-2.486910912153E+00
    -7.692724466324E-06 3.831529757008E-04 1.344829797745E-06 5.440597736359E+03
     3.840000000000E+04 4.842877388000E-08-8.661194726440E-01 1.490116119385E-08
     9.851595993259E-01 3.220000000000E+02-1.684154642041E+00-5.685593970667E-09
    -2.539391490134E-10 2.580000000000E+02 2.035000000000E+03 0.000000000000E+00
     3.120000000000E+00 5.600000000000E+01 1.164153218269E-09 0.000000000000E+00
     3.915000000000E+04 0.000000000000E+00 0.000000000000E+00 0.000000000000E+00
E04 2019 01 06 10 40 00-1.943676616065E-04-7.844391802792E-12 0.000000000000E+00
     6.400000000000E+01 2.878125000000E+01 3.710868858297E-09 1.190263342903E+00
     1.223757863045E-06 8.306768722832E-05 4.924833774567E-06 5.440603948593E+03
     3.840000000000E+04-4.284083843231E-08 1.244419263812E+00-3.725290298462E-09
     9.522446403543E-01 2.280000000000E+02 1.968992223698E+00-5.743810681341E-09
     3.507288949806E-10 5.210000000000E+02 2.035000000000E+03 0.000000000000E+00
     3.120000000000E+00 0.000000000000E+00-7.916241884232E-09-8.847564458847E-09
     3.917500000000E+04 0.000000000000E+00 0.000000000000E+00 0.000000000000E+00
E15 2019 01 06 10 40 00 9.237105259672E-04-1.051603248925E-12 0.000000000000E+00
     6.400000000000E+01-1.657187500000E+02 2.890477542849E-09-2.486910912153E+00
    -7.692724466324E-06 3.831529757008E-04 1.344829797745E-06 5.440597736359E+03
     3.840000000000E+04 4.842877388000E-08-8.661194726440E-01 1.490116119385E-08
     9.851595993259E-01 3.220000000000E+02-1.684154642041E+00-5.685593970667E-09
    -2.539391490134E-10 5.210000000000E+02 2.035000000000E+03 0.000000000000E+00
     3.120000000000E+00 4.550000000000E+02 1.164153218269E-09 1.164153218269E-09
     3.917500000000E+04 0.000000000000E+00 0.000000000000E+00 0.000000000000E+00
E13 2019 01 06 10 40 00 3.813955117948E-04 5.258016244625E-13 0.000000000000E+00
     6.400000000000E+01-1.666250000000E+02 2.860833450911E-09 2.937531340086E+00
    -7.916241884232E-06 3.327443264425E-04 1.564621925354E-06 5.440601396561E+03
     3.840000000000E+04 4.097819328308E-08-8.661083252082E-01-9.313225746155E-09
     9.852014022101E-01 3.176562500000E+02-1.607623435923E+00-5.679165131452E-09
    -2.307238962907E-10 2.580000000000E+02 2.035000000000E+03 0.000000000000E+00
     3.120000000000E+00 5.600000000000E+01-4.656612873077E-09 0.000000000000E+00
     3.925000000000E+04 0.000000000000E+00 0.000000000000E+00 0.000000000000E+00
E13 2019 01 06 10 40 00 3.813949879259E-04 5.258016244625E-13 0.000000000000E+00
     6.400000000000E+01-1.666250000000E+02 2.860833450911E-09 2.937531340086E+00
    -7.916241884232E-06 3.327443264425E-04 1.564621925354E-06 5.440601396561E+03
     3.840000000000E+04 4.097819328308E-08-8.661083252082E-01-9.313225746155E-09
     9.852014022101E-01 3.176562500000E+02-1.607623435923E+00-5.679165131452E-09
    -2.307238962907E-10 5.210000000000E+02 2.035000000000E+03 0.000000000000E+00
     3.120000000000E+00 4.550000000000E+02-4.656612873077E-09-5.820766091347E-09
     3.926500000000E+04 0.000000000000E+00 0.000000000000E+00 0.000000000000E+00
E12 2019 01 06 10 20 00 5.881552177016E-03 8.434142273472E-11 0.000000000000E+00
     6.200000000000E+01-1.810625000000E+02 2.940122467902E-09-2.594624044506E-01
    -8.428469300270E-06 3.700694069266E-04 2.574175596237E-06 5.440605352402E+03
     3.720000000000E+04-3.166496753693E-08-8.608168568888E-01 2.980232238770E-08
     9.819752128777E-01 2.942812500000E+02-9.037123872026E-01-5.728810056505E-09
    -2.882262914962E-10 5.210000000000E+02 2.035000000000E+03 0.000000000000E+00
     3.120000000000E+00 0.000000000000E+00-1.559965312481E-08-1.583248376846E-08
     3.956500000000E+04 0.000000000000E+00 0.000000000000E+00 0.000000000000E+00